OBJECT_NAME,OBJECT_ID,EPOCH,MEAN_MOTION,ECCENTRICITY,INCLINATION,RA_OF_ASC_NODE,ARG_OF_PERICENTER,MEAN_ANOMALY,EPHEMERIS_TYPE,CLASSIFICATION_TYPE,NORAD_CAT_ID,ELEMENT_SET_NO,REV_AT_EPOCH,BSTAR,MEAN_MOTION_DOT,MEAN_MOTION_DDOT
2023-003C,2023-003C,2026-07-20T23:18:55.295712,15.57012198,.00025634,97.1505,278.5900,41.3969,318.7480,0,U,55135,999,19753,.24441345E-3,.17559E-3,0
2023-003E,2023-003E,2026-07-20T22:42:22.910400,15.56510945,.00026418,97.1413,277.3745,21.1343,339.0021,0,U,55137,999,19751,.25395356E-3,.17913E-3,0
ONEWEB-0532,2023-004A,2026-07-20T21:36:03.411936,13.17648766,.00018458,87.9154,359.1572,83.4137,276.7205,0,U,55140,999,17202,.77426808E-4,.43E-6,0
ONEWEB-0533,2023-004B,2026-07-20T22:12:45.773856,13.12442283,.00016563,87.8972,343.9629,98.2208,261.9108,0,U,55141,999,17248,.11523812E-2,.427E-5,0
ONEWEB-0541,2023-004C,2026-07-20T21:43:52.990752,13.11418229,.0001982,87.8896,14.3462,88.5863,271.5492,0,U,55142,999,17036,-.77800826E-3,-.263E-5,0
ONEWEB-0543,2023-004D,2026-07-20T20:28:22.037376,13.18686927,.00019453,87.9191,328.7741,105.7937,254.3409,0,U,55143,999,17413,.12122233E-3,.61E-6,0
ONEWEB-0544,2023-004E,2026-07-20T20:18:39.341952,13.18684630,.00021124,87.9193,328.7748,101.4382,258.6988,0,U,55144,999,17413,-.21669666E-4,.4E-7,0
ONEWEB-0560,2023-004F,2026-07-20T21:58:13.062144,13.18685792,.00021317,87.9192,328.7507,104.1459,255.9910,0,U,55145,999,17415,.10558744E-3,.55E-6,0
ONEWEB-0565,2023-004G,2026-07-20T21:48:30.257856,13.18685214,.00022607,87.9183,328.7766,93.0740,267.0651,0,U,55146,999,17414,.10819259E-4,.17E-6,0
ONEWEB-0567,2023-004H,2026-07-20T21:38:46.829760,13.18685606,.00022473,87.9194,328.7651,96.7591,263.3796,0,U,55147,999,17414,-.68517428E-3,-.257E-5,0
ONEWEB-0569,2023-004J,2026-07-20T19:56:37.501440,13.13470361,.00027993,87.8990,313.5280,108.0571,252.0864,0,U,55148,999,17459,.93186082E-3,.353E-5,0
ONEWEB-0570,2023-004K,2026-07-20T21:26:38.725728,13.18684797,.00019258,87.9192,328.7643,86.2560,273.8793,0,U,55149,999,17413,.16276961E-4,.19E-6,0
ONEWEB-0571,2023-004L,2026-07-20T21:16:57.106848,13.18686093,.00031568,87.9193,328.7654,95.5005,264.6487,0,U,55150,999,17414,-.17186148E-3,-.55E-6,0
ONEWEB-0572,2023-004M,2026-07-20T22:20:59.837568,13.17647609,.00020047,87.9152,359.1527,91.5542,268.5819,0,U,55151,999,17192,-.3962509E-5,.11E-6,0
ONEWEB-0573,2023-004N,2026-07-20T21:07:13.072224,13.18683928,.00027364,87.9193,328.7685,92.4028,267.7417,0,U,55152,999,17413,-.15210857E-3,-.47E-6,0
ONEWEB-0588,2023-004P,2026-07-20T20:57:30.674880,13.18686611,.00020338,87.9191,328.7692,84.8995,275.2370,0,U,55153,999,17413,.57813033E-4,.36E-6,0
ONEWEB-0598,2023-004Q,2026-07-20T21:12:08.301024,13.11415443,.00025553,87.8889,14.3585,95.8489,264.2930,0,U,55154,999,17031,-.11195363E-2,-.384E-5,0
ONEWEB-0599,2023-004R,2026-07-20T21:25:06.021984,13.17647689,.0001947,87.9152,359.1590,100.9004,259.2346,0,U,55155,999,17192,.39315631E-4,.28E-6,0
ONEWEB-0614,2023-004S,2026-07-20T21:04:48.868896,13.11415253,.00016822,87.8886,14.3673,85.6928,274.4393,0,U,55156,999,17025,-.61119456E-3,-.204E-5,0
ONEWEB-0616,2023-004T,2026-07-20T22:25:50.874240,13.17647758,.00020338,87.9153,359.1547,121.2911,238.8420,0,U,55157,999,17214,-.61651172E-4,-.11E-6,0
ONEWEB-0617,2023-004U,2026-07-20T20:47:43.075392,13.11416216,.00017862,87.8893,14.3627,80.3362,279.7968,0,U,55158,999,17027,.80560318E-3,.298E-5,0
ONEWEB-0618,2023-004V,2026-07-20T21:58:20.604000,15.13437732,.001312,86.9106,163.9395,155.3167,204.8704,0,U,55159,999,18736,.24542873E-3,.4425E-4,0
ONEWEB-0619,2023-004W,2026-07-20T21:22:40.123488,13.17647992,.00014244,87.9166,359.1472,95.3666,264.7628,0,U,55160,999,17203,.43468457E-4,.3E-6,0
ONEWEB-0620,2023-004X,2026-07-20T20:40:24.413952,13.11416146,.00020995,87.8886,14.3703,89.6083,270.5285,0,U,55161,999,17024,.12699638E-2,.463E-5,0
ONEWEB-0621,2023-004Y,2026-07-20T21:19:27.845472,13.11415879,.00016435,87.8896,14.3568,86.4566,273.6750,0,U,55162,999,17022,-.13810346E-2,-.477E-5,0
ONEWEB-0622,2023-004Z,2026-07-20T21:26:47.243040,13.11416841,.00019898,87.8898,14.3587,70.3497,289.7845,0,U,55163,999,17021,-.15822269E-2,-.548E-5,0
ONEWEB-0623,2023-004AA,2026-07-20T21:15:23.469120,13.17648466,.00014125,87.9151,359.1743,71.2178,288.9106,0,U,55164,999,17202,.7117701E-5,.16E-6,0
ONEWEB-0624,2023-004AB,2026-07-20T21:06:07.827264,13.12928441,.00017452,87.8973,343.8810,92.4941,267.6387,0,U,55165,999,17249,-.91337618E-3,-.318E-5,0
ONEWEB-0625,2023-004AC,2026-07-20T21:00:48.319200,13.17647511,.00017795,87.9154,359.1726,98.9905,261.1428,0,U,55166,999,17201,.35579098E-4,.27E-6,0
ONEWEB-0626,2023-004AD,2026-07-20T20:46:14.562912,13.17647875,.00021888,87.9153,359.1743,96.8775,263.2605,0,U,55167,999,17201,-.11612896E-3,-.32E-6,0
